{
  "type": "FeatureCollection",
  "features": [
    {
      "type": "Feature",
      "properties": {
        "norad_id": 38857,
        "name": "GSAT0103 (GALILEO-FM3)",
        "group": "gnss",
        "lat": 8.411441557695388,
        "lon": -78.87097376493524,
        "alt_km": 23222.23818420456,
        "timestamp": "2025-12-02T15:49:07.430905+00:00",
        "meta_object_name": "GSAT0103 (GALILEO-FM3)",
        "meta_object_id": "2012-055A",
        "meta_epoch": "2025-11-28T20:42:38.723616",
        "meta_mean_motion": 1.70473322,
        "meta_eccentricity": 0.00022412,
        "meta_inclination": 55.6842,
        "meta_ra_of_asc_node": 107.0477,
        "meta_arg_of_pericenter": 266.7022,
        "meta_mean_anomaly": 93.2527,
        "meta_ephemeris_type": 0,
        "meta_classification_type": "U",
        "meta_norad_cat_id": 38857,
        "meta_element_set_no": 999,
        "meta_rev_at_epoch": 8159,
        "meta_bstar": 0,
        "meta_mean_motion_dot": 5.5e-07,
        "meta_mean_motion_ddot": 0,
        "tle_line1": "1 38857U 12055A   25332.86294819  .00000055  00000+0  00000+0 0  9994",
        "tle_line2": "2 38857  55.6842 107.0477 0002241 266.7022  93.2527  1.70473322 81593"
      },
      "geometry": {
        "type": "Point",
        "coordinates": [
          -78.87097376493524,
          8.411441557695388
        ]
      }
    },
    {
      "type": "Feature",
      "properties": {
        "norad_id": 38953,
        "name": "BEIDOU-2 G6 (C02)",
        "group": "gnss",
        "lat": -2.6241544521969726,
        "lon": 33.17331339901356,
        "alt_km": 35759.22990614142,
        "timestamp": "2025-12-02T15:49:07.430919+00:00",
        "meta_object_name": "BEIDOU-2 G6 (C02)",
        "meta_object_id": "2012-059A",
        "meta_epoch": "2025-12-02T03:54:44.266176",
        "meta_mean_motion": 1.0027097,
        "meta_eccentricity": 0.00072922,
        "meta_inclination": 3.9201,
        "meta_ra_of_asc_node": 75.6056,
        "meta_arg_of_pericenter": 290.7249,
        "meta_mean_anomaly": 207.6781,
        "meta_ephemeris_type": 0,
        "meta_classification_type": "U",
        "meta_norad_cat_id": 38953,
        "meta_element_set_no": 999,
        "meta_rev_at_epoch": 4793,
        "meta_bstar": 0,
        "meta_mean_motion_dot": -1.56e-06,
        "meta_mean_motion_ddot": 0,
        "tle_line1": "1 38953U 12059A   25336.16301234 -.00000156  00000+0  00000+0 0  9995",
        "tle_line2": "2 38953   3.9201  75.6056 0007292 290.7249 207.6781  1.00270970 47937"
      },
      "geometry": {
        "type": "Point",
        "coordinates": [
          33.17331339901356,
          -2.6241544521969726
        ]
      }
    },
    {
      "type": "Feature",
      "properties": {
        "norad_id": 38977,
        "name": "LUCH 5B (SDCM/PRN 125)",
        "group": "gnss",
        "lat": -8.794256598213524,
        "lon": -67.6534422567962,
        "alt_km": 35768.277809565596,
        "timestamp": "2025-12-02T15:49:07.430932+00:00",
        "meta_object_name": "LUCH 5B (SDCM/PRN 125)",
        "meta_object_id": "2012-061A",
        "meta_epoch": "2025-12-02T00:00:34.725024",
        "meta_mean_motion": 1.00269053,
        "meta_eccentricity": 0.00075983,
        "meta_inclination": 10.0566,
        "meta_ra_of_asc_node": 51.8026,
        "meta_arg_of_pericenter": 188.6335,
        "meta_mean_anomaly": 174.4538,
        "meta_ephemeris_type": 0,
        "meta_classification_type": "U",
        "meta_norad_cat_id": 38977,
        "meta_element_set_no": 999,
        "meta_rev_at_epoch": 4763,
        "meta_bstar": 0,
        "meta_mean_motion_dot": -1.23e-06,
        "meta_mean_motion_ddot": 0,
        "tle_line1": "1 38977U 12061A   25336.00040191 -.00000123  00000+0  00000+0 0  9993",
        "tle_line2": "2 38977  10.0566  51.8026 0007598 188.6335 174.4538  1.00269053 47637"
      },
      "geometry": {
        "type": "Point",
        "coordinates": [
          -67.6534422567962,
          -8.794256598213524
        ]
      }
    },
    {
      "type": "Feature",
      "properties": {
        "norad_id": 39155,
        "name": "COSMOS 2485 (747)",
        "group": "gnss",
        "lat": -62.383253059146,
        "lon": 18.785557953094788,
        "alt_km": 19100.564339558037,
        "timestamp": "2025-12-02T15:49:07.430944+00:00",
        "meta_object_name": "COSMOS 2485 (747)",
        "meta_object_id": "2013-019A",
        "meta_epoch": "2025-11-24T07:30:54.982368",
        "meta_mean_motion": 2.13103115,
        "meta_eccentricity": 0.0024274,
        "meta_inclination": 65.3036,
        "meta_ra_of_asc_node": 80.4871,
        "meta_arg_of_pericenter": 228.0776,
        "meta_mean_anomaly": 131.7167,
        "meta_ephemeris_type": 0,
        "meta_classification_type": "U",
        "meta_norad_cat_id": 39155,
        "meta_element_set_no": 999,
        "meta_rev_at_epoch": 9791,
        "meta_bstar": 0,
        "meta_mean_motion_dot": 1.2e-07,
        "meta_mean_motion_ddot": 0,
        "tle_line1": "1 39155U 13019A   25328.31313637  .00000012  00000+0  00000+0 0  9995",
        "tle_line2": "2 39155  65.3036  80.4871 0024274 228.0776 131.7167  2.13103115 97916"
      },
      "geometry": {
        "type": "Point",
        "coordinates": [
          18.785557953094788,
          -62.383253059146
        ]
      }
    },
    {
      "type": "Feature",
      "properties": {
        "norad_id": 39166,
        "name": "GPS BIIF-4  (PRN 27)",
        "group": "gnss",
        "lat": -45.712466575259036,
        "lon": -129.6385582373543,
        "alt_km": 20306.373775546228,
        "timestamp": "2025-12-02T15:49:07.430956+00:00",
        "meta_object_name": "GPS BIIF-4  (PRN 27)",
        "meta_object_id": "2013-023A",
        "meta_epoch": "2025-12-01T17:54:55.989504",
        "meta_mean_motion": 2.00565053,
        "meta_eccentricity": 0.01372371,
        "meta_inclination": 54.6617,
        "meta_ra_of_asc_node": 277.0152,
        "meta_arg_of_pericenter": 48.4926,
        "meta_mean_anomaly": 312.6731,
        "meta_ephemeris_type": 0,
        "meta_classification_type": "U",
        "meta_norad_cat_id": 39166,
        "meta_element_set_no": 999,
        "meta_rev_at_epoch": 9192,
        "meta_bstar": 0,
        "meta_mean_motion_dot": -4e-07,
        "meta_mean_motion_ddot": 0,
        "tle_line1": "1 39166U 13023A   25335.74648136 -.00000040  00000+0  00000+0 0  9994",
        "tle_line2": "2 39166  54.6617 277.0152 0137237  48.4926 312.6731  2.00565053 91926"
      },
      "geometry": {
        "type": "Point",
        "coordinates": [
          -129.6385582373543,
          -45.712466575259036
        ]
      }
    },
    {
      "type": "Feature",
      "properties": {
        "norad_id": 39199,
        "name": "IRNSS-1A",
        "group": "gnss",
        "lat": -30.760799968870565,
        "lon": 9.501319556217554,
        "alt_km": 35822.70032783315,
        "timestamp": "2025-12-02T15:49:07.430968+00:00",
        "meta_object_name": "IRNSS-1A",
        "meta_object_id": "2013-034A",
        "meta_epoch": "2025-11-29T20:16:50.456352",
        "meta_mean_motion": 1.00278191,
        "meta_eccentricity": 0.00217208,
        "meta_inclination": 35.2795,
        "meta_ra_of_asc_node": 66.7394,
        "meta_arg_of_pericenter": 185.4975,
        "meta_mean_anomaly": 176.0627,
        "meta_ephemeris_type": 0,
        "meta_classification_type": "U",
        "meta_norad_cat_id": 39199,
        "meta_element_set_no": 999,
        "meta_rev_at_epoch": 4537,
        "meta_bstar": 0,
        "meta_mean_motion_dot": 8.1e-07,
        "meta_mean_motion_ddot": 0,
        "tle_line1": "1 39199U 13034A   25333.84502843  .00000081  00000+0  00000+0 0  9999",
        "tle_line2": "2 39199  35.2795  66.7394 0021720 185.4975 176.0627  1.00278191 45377"
      },
      "geometry": {
        "type": "Point",
        "coordinates": [
          9.501319556217554,
          -30.760799968870565
        ]
      }
    },
    {
      "type": "Feature",
      "properties": {
        "norad_id": 39533,
        "name": "GPS BIIF-5  (PRN 30)",
        "group": "gnss",
        "lat": -42.38792701459013,
        "lon": 115.03451799236473,
        "alt_km": 20136.403554348464,
        "timestamp": "2025-12-02T15:49:07.430994+00:00",
        "meta_object_name": "GPS BIIF-5  (PRN 30)",
        "meta_object_id": "2014-008A",
        "meta_epoch": "2025-12-01T17:47:12.744672",
        "meta_mean_motion": 2.00573724,
        "meta_eccentricity": 0.00789385,
        "meta_inclination": 53.6295,
        "meta_ra_of_asc_node": 157.3734,
        "meta_arg_of_pericenter": 226.3523,
        "meta_mean_anomaly": 133.0366,
        "meta_ephemeris_type": 0,
        "meta_classification_type": "U",
        "meta_norad_cat_id": 39533,
        "meta_element_set_no": 999,
        "meta_rev_at_epoch": 8572,
        "meta_bstar": 0,
        "meta_mean_motion_dot": 1.22e-06,
        "meta_mean_motion_ddot": 0,
        "tle_line1": "1 39533U 14008A   25335.74111973  .00000122  00000+0  00000+0 0  9990",
        "tle_line2": "2 39533  53.6295 157.3734 0078938 226.3523 133.0366  2.00573724 85727"
      },
      "geometry": {
        "type": "Point",
        "coordinates": [
          115.03451799236473,
          -42.38792701459013
        ]
      }
    }
  ]
}